{
  "type": "FeatureCollection",
  "features": [
    {
      "type": "Feature",
      "properties": {
        "norad_id": 25590,
        "name": "COSMOS 2361",
        "group": "musson",
        "lat": -55.12237430577487,
        "lon": -32.569525089910506,
        "alt_km": 985.1872608901722,
        "timestamp": "2025-12-21T09:37:22.924377+00:00",
        "meta_object_name": "COSMOS 2361",
        "meta_object_id": "1998-076A",
        "meta_epoch": "2025-12-21T01:28:32.841408",
        "meta_mean_motion": 13.73218455,
        "meta_eccentricity": 0.0030182,
        "meta_inclination": 82.9341,
        "meta_ra_of_asc_node": 337.9311,
        "meta_arg_of_pericenter": 241.479,
        "meta_mean_anomaly": 185.2761,
        "meta_ephemeris_type": 0,
        "meta_classification_type": "U",
        "meta_norad_cat_id": 25590,
        "meta_element_set_no": 999,
        "meta_rev_at_epoch": 35225,
        "meta_bstar": 3.7398e-05,
        "meta_mean_motion_dot": 5e-07,
        "meta_mean_motion_ddot": 0,
        "tle_line1": "1 25590U 98076A   25355.06149122  .00000050  00000+0  37398-4 0  9994",
        "tle_line2": "2 25590  82.9341 337.9311 0030182 241.4790 185.2761 13.73218455352254"
      },
      "geometry": {
        "type": "Point",
        "coordinates": [
          -32.569525089910506,
          -55.12237430577487
        ]
      }
    },
    {
      "type": "Feature",
      "properties": {
        "norad_id": 26818,
        "name": "COSMOS 2378",
        "group": "musson",
        "lat": 44.64183999800029,
        "lon": 0.3451962402951242,
        "alt_km": 998.1224587787901,
        "timestamp": "2025-12-21T09:37:22.924398+00:00",
        "meta_object_name": "COSMOS 2378",
        "meta_object_id": "2001-023A",
        "meta_epoch": "2025-12-21T02:44:41.103168",
        "meta_mean_motion": 13.74142635,
        "meta_eccentricity": 0.0032917,
        "meta_inclination": 82.9269,
        "meta_ra_of_asc_node": 353.5147,
        "meta_arg_of_pericenter": 181.3472,
        "meta_mean_anomaly": 247.1085,
        "meta_ephemeris_type": 0,
        "meta_classification_type": "U",
        "meta_norad_cat_id": 26818,
        "meta_element_set_no": 999,
        "meta_rev_at_epoch": 23038,
        "meta_bstar": 2.2571e-05,
        "meta_mean_motion_dot": 3.7e-07,
        "meta_mean_motion_ddot": 0,
        "tle_line1": "1 26818U 01023A   25355.11436462  .00000037  00000+0  22571-4 0  9998",
        "tle_line2": "2 26818  82.9269 353.5147 0032917 181.3472 247.1085 13.74142635230388"
      },
      "geometry": {
        "type": "Point",
        "coordinates": [
          0.3451962402951242,
          44.64183999800029
        ]
      }
    },
    {
      "type": "Feature",
      "properties": {
        "norad_id": 27436,
        "name": "COSMOS 2389",
        "group": "musson",
        "lat": -74.94401721697166,
        "lon": -86.8120447306913,
        "alt_km": 1002.352921443483,
        "timestamp": "2025-12-21T09:37:22.924412+00:00",
        "meta_object_name": "COSMOS 2389",
        "meta_object_id": "2002-026A",
        "meta_epoch": "2025-12-21T03:03:46.399968",
        "meta_mean_motion": 13.75155441,
        "meta_eccentricity": 0.0047298,
        "meta_inclination": 82.9509,
        "meta_ra_of_asc_node": 300.7753,
        "meta_arg_of_pericenter": 37.8913,
        "meta_mean_anomaly": 333.5501,
        "meta_ephemeris_type": 0,
        "meta_classification_type": "U",
        "meta_norad_cat_id": 27436,
        "meta_element_set_no": 999,
        "meta_rev_at_epoch": 18264,
        "meta_bstar": 3.241e-05,
        "meta_mean_motion_dot": 4.7e-07,
        "meta_mean_motion_ddot": 0,
        "tle_line1": "1 27436U 02026A   25355.12762037  .00000047  00000+0  32410-4 0  9994",
        "tle_line2": "2 27436  82.9509 300.7753 0047298  37.8913 333.5501 13.75155441182640"
      },
      "geometry": {
        "type": "Point",
        "coordinates": [
          -86.8120447306913,
          -74.94401721697166
        ]
      }
    },
    {
      "type": "Feature",
      "properties": {
        "norad_id": 27818,
        "name": "COSMOS 2398",
        "group": "musson",
        "lat": 29.021597568707076,
        "lon": 82.37838381875925,
        "alt_km": 978.1776573264051,
        "timestamp": "2025-12-21T09:37:22.924424+00:00",
        "meta_object_name": "COSMOS 2398",
        "meta_object_id": "2003-023A",
        "meta_epoch": "2025-12-21T04:10:11.059104",
        "meta_mean_motion": 13.72386519,
        "meta_eccentricity": 0.0032717,
        "meta_inclination": 82.9484,
        "meta_ra_of_asc_node": 266.4834,
        "meta_arg_of_pericenter": 89.3246,
        "meta_mean_anomaly": 19.0113,
        "meta_ephemeris_type": 0,
        "meta_classification_type": "U",
        "meta_norad_cat_id": 27818,
        "meta_element_set_no": 999,
        "meta_rev_at_epoch": 12932,
        "meta_bstar": 5.478e-05,
        "meta_mean_motion_dot": 6.6e-07,
        "meta_mean_motion_ddot": 0,
        "tle_line1": "1 27818U 03023A   25355.17373911  .00000066  00000+0  54780-4 0  9995",
        "tle_line2": "2 27818  82.9484 266.4834 0032717  89.3246  19.0113 13.72386519129325"
      },
      "geometry": {
        "type": "Point",
        "coordinates": [
          82.37838381875925,
          29.021597568707076
        ]
      }
    },
    {
      "type": "Feature",
      "properties": {
        "norad_id": 28380,
        "name": "COSMOS 2407",
        "group": "musson",
        "lat": 69.9423858316671,
        "lon": 6.697225629613326,
        "alt_km": 963.7993391667951,
        "timestamp": "2025-12-21T09:37:22.924436+00:00",
        "meta_object_name": "COSMOS 2407",
        "meta_object_id": "2004-028A",
        "meta_epoch": "2025-12-21T00:54:24.146208",
        "meta_mean_motion": 13.76314621,
        "meta_eccentricity": 0.0039948,
        "meta_inclination": 82.9598,
        "meta_ra_of_asc_node": 206.7488,
        "meta_arg_of_pericenter": 32.2137,
        "meta_mean_anomaly": 77.688,
        "meta_ephemeris_type": 0,
        "meta_classification_type": "U",
        "meta_norad_cat_id": 28380,
        "meta_element_set_no": 999,
        "meta_rev_at_epoch": 7537,
        "meta_bstar": 5.5827e-05,
        "meta_mean_motion_dot": 7e-07,
        "meta_mean_motion_ddot": 0,
        "tle_line1": "1 28380U 04028A   25355.03777947  .00000070  00000+0  55827-4 0  9996",
        "tle_line2": "2 28380  82.9598 206.7488 0039948  32.2137  77.6880 13.76314621 75372"
      },
      "geometry": {
        "type": "Point",
        "coordinates": [
          6.697225629613326,
          69.9423858316671
        ]
      }
    },
    {
      "type": "Feature",
      "properties": {
        "norad_id": 28521,
        "name": "COSMOS 2414",
        "group": "musson",
        "lat": 12.020975160370474,
        "lon": 179.62055199289136,
        "alt_km": 944.0809016209432,
        "timestamp": "2025-12-21T09:37:22.924447+00:00",
        "meta_object_name": "COSMOS 2414",
        "meta_object_id": "2005-002A",
        "meta_epoch": "2025-12-21T00:54:48.930912",
        "meta_mean_motion": 13.87904051,
        "meta_eccentricity": 0.004129,
        "meta_inclination": 82.9488,
        "meta_ra_of_asc_node": 178.3848,
        "meta_arg_of_pericenter": 116.6292,
        "meta_mean_anomaly": 243.9111,
        "meta_ephemeris_type": 0,
        "meta_classification_type": "U",
        "meta_norad_cat_id": 28521,
        "meta_element_set_no": 999,
        "meta_rev_at_epoch": 5910,
        "meta_bstar": 4.2018e-05,
        "meta_mean_motion_dot": 6.6e-07,
        "meta_mean_motion_ddot": 0,
        "tle_line1": "1 28521U 05002A   25355.03806633  .00000066  00000+0  42018-4 0  9994",
        "tle_line2": "2 28521  82.9488 178.3848 0041290 116.6292 243.9111 13.87904051 59105"
      },
      "geometry": {
        "type": "Point",
        "coordinates": [
          179.62055199289136,
          12.020975160370474
        ]
      }
    },
    {
      "type": "Feature",
      "properties": {
        "norad_id": 32052,
        "name": "COSMOS 2429",
        "group": "musson",
        "lat": 68.83758536963194,
        "lon": 138.36602758347672,
        "alt_km": 977.2855064651094,
        "timestamp": "2025-12-21T09:37:22.924472+00:00",
        "meta_object_name": "COSMOS 2429",
        "meta_object_id": "2007-038A",
        "meta_epoch": "2025-12-21T00:21:41.705856",
        "meta_mean_motion": 13.75150203,
        "meta_eccentricity": 0.0038766,
        "meta_inclination": 82.9806,
        "meta_ra_of_asc_node": 337.2079,
        "meta_arg_of_pericenter": 15.1606,
        "meta_mean_anomaly": 345.0702,
        "meta_ephemeris_type": 0,
        "meta_classification_type": "U",
        "meta_norad_cat_id": 32052,
        "meta_element_set_no": 999,
        "meta_rev_at_epoch": 91716,
        "meta_bstar": 3.3578e-05,
        "meta_mean_motion_dot": 4.8e-07,
        "meta_mean_motion_ddot": 0,
        "tle_line1": "1 32052U 07038A   25355.01506604  .00000048  00000+0  33578-4 0  9993",
        "tle_line2": "2 32052  82.9806 337.2079 0038766  15.1606 345.0702 13.75150203917169"
      },
      "geometry": {
        "type": "Point",
        "coordinates": [
          138.36602758347672,
          68.83758536963194
        ]
      }
    },
    {
      "type": "Feature",
      "properties": {
        "norad_id": 35635,
        "name": "COSMOS 2454",
        "group": "musson",
        "lat": 53.164728293368086,
        "lon": -27.422106641478546,
        "alt_km": 920.2222846049617,
        "timestamp": "2025-12-21T09:37:22.924485+00:00",
        "meta_object_name": "COSMOS 2454",
        "meta_object_id": "2009-039A",
        "meta_epoch": "2025-12-21T00:58:54.604992",
        "meta_mean_motion": 13.89929585,
        "meta_eccentricity": 0.0020201,
        "meta_inclination": 82.9557,
        "meta_ra_of_asc_node": 162.3521,
        "meta_arg_of_pericenter": 51.4614,
        "meta_mean_anomaly": 73.9313,
        "meta_ephemeris_type": 0,
        "meta_classification_type": "U",
        "meta_norad_cat_id": 35635,
        "meta_element_set_no": 999,
        "meta_rev_at_epoch": 83265,
        "meta_bstar": 3.0101e-05,
        "meta_mean_motion_dot": 5.3e-07,
        "meta_mean_motion_ddot": 0,
        "tle_line1": "1 35635U 09039A   25355.04090978  .00000053  00000+0  30101-4 0  9996",
        "tle_line2": "2 35635  82.9557 162.3521 0020201  51.4614  73.9313 13.89929585832655"
      },
      "geometry": {
        "type": "Point",
        "coordinates": [
          -27.422106641478546,
          53.164728293368086
        ]
      }
    },
    {
      "type": "Feature",
      "properties": {
        "norad_id": 36519,
        "name": "COSMOS 2463",
        "group": "musson",
        "lat": -42.38633106281551,
        "lon": 13.872432825424834,
        "alt_km": 985.1764039106356,
        "timestamp": "2025-12-21T09:37:22.924496+00:00",
        "meta_object_name": "COSMOS 2463",
        "meta_object_id": "2010-017A",
        "meta_epoch": "2025-12-21T03:07:08.284800",
        "meta_mean_motion": 13.7164984,
        "meta_eccentricity": 0.0034748,
        "meta_inclination": 82.9604,
        "meta_ra_of_asc_node": 20.5467,
        "meta_arg_of_pericenter": 263.9037,
        "meta_mean_anomaly": 155.6361,
        "meta_ephemeris_type": 0,
        "meta_classification_type": "U",
        "meta_norad_cat_id": 36519,
        "meta_element_set_no": 999,
        "meta_rev_at_epoch": 78352,
        "meta_bstar": 3.9238e-05,
        "meta_mean_motion_dot": 5e-07,
        "meta_mean_motion_ddot": 0,
        "tle_line1": "1 36519U 10017A   25355.12995700  .00000050  00000+0  39238-4 0  9999",
        "tle_line2": "2 36519  82.9604  20.5467 0034748 263.9037 155.6361 13.71649840783520"
      },
      "geometry": {
        "type": "Point",
        "coordinates": [
          13.872432825424834,
          -42.38633106281551
        ]
      }
    }
  ]
}